{"type": "FeatureCollection", "features": [{"type": "Feature", "geometry": {"type": "Polygon", "coordinates": [[[-98.6747, 19.5501], [-98.6661, 19.525], [-98.6361, 19.4811], [-98.6057, 19.4902], [-98.5849, 19.4675], [-98.5854, 19.4516], [-98.5695, 19.3984], [-98.5917, 19.3753], [-98.5932, 19.3337], [-98.5874, 19.3038], [-98.5603, 19.2424], [-98.5516, 19.196], [-98.5468, 19.0289], [-98.5825, 19.0221], [-98.6028, 19.0095], [-98.6487, 18.9651], [-98.6869, 18.9439], [-98.7386, 18.9651], [-98.7888, 18.9796], [-98.8072, 18.9994], [-98.8261, 19.04], [-98.8652, 19.0714], [-98.8729, 19.1028], [-98.8555, 19.1303], [-98.854, 19.1661], [-98.868, 19.226], [-98.8772, 19.2448], [-98.9057, 19.2448], [-98.9086, 19.2864], [-98.9245, 19.3013], [-98.9816, 19.3366], [-98.9941, 19.3545], [-99.0134, 19.4129], [-99.0424, 19.4588], [-99.0763, 19.4859], [-99.0743, 19.526], [-99.1043, 19.5293], [-99.1255, 19.4984], [-99.1768, 19.4463], [-99.199, 19.3714], [-99.2265, 19.3434], [-99.255, 19.3298], [-99.3038, 19.2946], [-99.3255, 19.267], [-99.3217, 19.2299], [-99.2951, 19.1902], [-99.2825, 19.1607], [-99.2361, 19.0864], [-99.2168, 19.0637], [-99.2617, 18.9907], [-99.282, 18.9695], [-99.311, 18.9086], [-99.3448, 18.8545], [-99.3748, 18.8241], [-99.3927, 18.7695], [-99.455, 18.6994], [-99.4647, 18.6613], [-99.497, 18.6661], [-99.5299, 18.6473], [-99.5622, 18.6646], [-99.6091, 18.6728], [-99.6453, 18.7139], [-99.6777, 18.712], [-99.6806, 18.7004], [-99.6608, 18.6636], [-99.6632, 18.6463], [-99.7337, 18.6342], [-99.7511, 18.5748], [-99.785, 18.5859], [-99.8202, 18.57], [-99.8318, 18.5477], [-99.9719, 18.539], [-100.0033, 18.5554], [-100.0438, 18.5366], [-100.0579, 18.5139], [-100.0304, 18.4612], [-100.0685, 18.4477], [-100.1227, 18.4424], [-100.1453, 18.427], [-100.1893, 18.382], [-100.2082, 18.3559], [-100.254, 18.3559], [-100.2647, 18.3468], [-100.2961, 18.3806], [-100.3183, 18.4144], [-100.327, 18.4555], [-100.3873, 18.468], [-100.4289, 18.4584], [-100.4497, 18.4608], [-100.4666, 18.483], [-100.4004, 18.552], [-100.3902, 18.5796], [-100.3941, 18.625], [-100.4048, 18.6385], [-100.4642, 18.654], [-100.4791, 18.7148], [-100.4758, 18.7584], [-100.4618, 18.8052], [-100.4497, 18.8758], [-100.4076, 18.9487], [-100.4057, 18.9772], [-100.4231, 19.0129], [-100.412, 19.0496], [-100.4197, 19.0603], [-100.3975, 19.0748], [-100.3883, 19.1178], [-100.3661, 19.1545], [-100.3284, 19.1873], [-100.2845, 19.2782], [-100.2956, 19.3154], [-100.2652, 19.383], [-100.2478, 19.4057], [-100.2211, 19.41], [-100.2091, 19.4337], [-100.2062, 19.4704], [-100.2304, 19.6067], [-100.2265, 19.6299], [-100.2492, 19.6477], [-100.2752, 19.6907], [-100.2752, 19.7255], [-100.227, 19.7178], [-100.1695, 19.7366], [-100.1579, 19.756], [-100.1468, 19.8337], [-100.1308, 19.8603], [-100.0936, 19.8979], [-100.0951, 19.9212], [-100.1298, 19.9521], [-100.1337, 19.9694], [-100.1265, 20.0438], [-100.084, 20.055], [-100.0395, 20.0487], [-100.0245, 20.0554], [-99.9477, 20.1313], [-99.9448, 20.1443], [-99.9593, 20.1965], [-99.9811, 20.2327], [-99.9714, 20.2443], [-99.9361, 20.2216], [-99.9101, 20.2264], [-99.9183, 20.2535], [-99.9062, 20.2772], [-99.8622, 20.3071], [-99.8154, 20.2545], [-99.7917, 20.24], [-99.7554, 20.2318], [-99.7101, 20.1984], [-99.6801, 20.1893], [-99.5994, 20.1781], [-99.5245, 20.1724], [-99.5192, 20.1506], [-99.4936, 20.141], [-99.4844, 20.1067], [-99.4333, 20.0231], [-99.4613, 19.9854], [-99.4438, 19.9602], [-99.4125, 19.938], [-99.399, 19.8907], [-99.3714, 19.8661], [-99.3709, 19.8414], [-99.3554, 19.8153], [-99.3647, 19.7274], [-99.3245, 19.7414], [-99.311, 19.7588], [-99.3004, 19.7927], [-99.3043, 19.8434], [-99.2748, 19.8361], [-99.2193, 19.8052], [-99.1917, 19.8342], [-99.1806, 19.8593], [-99.1763, 19.9004], [-99.1782, 19.9511], [-99.1704, 19.9757], [-99.1502, 19.9883], [-99.0154, 20.0163], [-98.9559, 20.052], [-98.9062, 20.0685], [-98.8825, 20.0661], [-98.8637, 20.0153], [-98.8753, 19.9651], [-98.8936, 19.939], [-98.9081, 19.8535], [-98.942, 19.8506], [-98.9782, 19.8308], [-98.9864, 19.811], [-98.9598, 19.7675], [-98.9516, 19.7439], [-98.9521, 19.71], [-98.9168, 19.7057], [-98.8893, 19.753], [-98.8666, 19.769], [-98.8482, 19.8033], [-98.7883, 19.8067], [-98.7038, 19.8221], [-98.6333, 19.8289], [-98.6159, 19.8265], [-98.6091, 19.7608], [-98.6333, 19.7004], [-98.6627, 19.6622], [-98.6825, 19.6038], [-98.6747, 19.5501]]]}, "properties": {"nombre": "Estado de México", "clave": "MX-MEX", "fuente": "angelnmara/geojson (mexicoHigh.json), límites estatales"}, "id": "MX-MEX"}]}